NORAD_CAT_ID,OBJECT_NAME,OBJECT_TYPE,EPOCH,MEAN_MOTION,ECCENTRICITY,INCLINATION,RA_OF_ASC_NODE,ARG_OF_PERICENTER,MEAN_ANOMALY,BSTAR,MEAN_MOTION_DOT,MEAN_MOTION_DDOT,TLE_LINE0,TLE_LINE1,TLE_LINE2,SEMIMAJOR_AXIS,PERIOD,APOGEE,PERIGEE,DECAYED
52553.0,STARLINK-3858,PAYLOAD,2023-02-11 08:44:15,15.08850684,9.77e-05,53.2134,127.445,125.8331,234.2752,0.0018521,0.0002932,0.0,0 STARLINK-3858,1 52553U 22051W   23042.36407310  .00029320  00000-0  18521-2 0  9990,2 52553  53.2134 127.4450 0000977 125.8331 234.2752 15.08850684 42083,6917.848,95.437,540.389,539.037,0.0
52553.0,STARLINK-3858,PAYLOAD,2023-02-11 11:55:02,15.08863405,0.0001165,53.2134,126.8495,114.2141,245.8973,0.0028397,0.00045225,0.0,0 STARLINK-3858,1 52553U 22051W   23042.49655307  .00045225  00000-0  28397-2 0  9999,2 52553  53.2134 126.8495 0001165 114.2141 245.8973 15.08863405 42039,6917.809,95.436,540.48,538.868,0.0
52553.0,STARLINK-3858,PAYLOAD,2023-02-11 23:02:44,15.08855277,0.0001881,53.2149,124.769,67.8677,292.2515,0.0022579,0.00035845,0.0,0 STARLINK-3858,1 52553U 22051W   23042.96023714  .00035845  00000-0  22579-2 0  9995,2 52553  53.2149 124.7690 0001881  67.8677 292.2515 15.08855277 42172,6917.834,95.437,541.0,538.397,0.0
52553.0,STARLINK-3858,PAYLOAD,2023-02-12 05:24:16,15.08846105,0.0001482,53.2136,123.5787,89.2226,270.8936,0.0014501,0.0002287,0.0,0 STARLINK-3858,1 52553U 22051W   23043.22519603  .00022870  00000-0  14501-2 0  9992,2 52553  53.2136 123.5787 0001482  89.2226 270.8936 15.08846105 42211,6917.862,95.437,540.752,538.702,0.0
52553.0,STARLINK-3858,PAYLOAD,2023-02-12 11:45:49,15.08857153,0.0001193,53.2134,122.3893,82.1083,278.0044,0.0029705,0.00047327,0.0,0 STARLINK-3858,1 52553U 22051W   23043.49015634  .00047327  00000-0  29705-2 0  9992,2 52553  53.2134 122.3893 0001193  82.1083 278.0044 15.08857153 42187,6917.828,95.436,540.518,538.868,0.0
52553.0,STARLINK-3858,PAYLOAD,2023-02-12 18:07:21,15.08888245,0.0001348,53.2134,121.1996,78.1506,281.9637,0.0035651,0.00056985,0.0,0 STARLINK-3858,1 52553U 22051W   23043.75511115  .00056985  00000-0  35651-2 0  9993,2 52553  53.2134 121.1996 0001348  78.1506 281.9637 15.08888245 42294,6917.733,95.435,540.53,538.665,0.0
52553.0,STARLINK-3858,PAYLOAD,2023-02-13 11:36:36,15.08859111,0.0001258,53.2136,117.9284,96.4967,263.6168,0.0024367,0.00038726,0.0,0 STARLINK-3858,1 52553U 22051W   23044.48375404  .00038726  00000-0  24367-2 0  9998,2 52553  53.2136 117.9284 0001258  96.4967 263.6168 15.08859111 42402,6917.822,95.436,540.557,538.817,0.0
52553.0,STARLINK-3858,PAYLOAD,2023-02-14 11:27:23,15.08864674,9.77e-05,53.2137,113.4677,99.5786,260.5316,0.0026339,0.00041908,0.0,0 STARLINK-3858,1 52553U 22051W   23045.47735591  .00041908  00000-0  26339-2 0  9992,2 52553  53.2137 113.4677 0000977  99.5786 260.5316 15.08864674 42557,6917.805,95.436,540.346,538.994,0.0
52553.0,STARLINK-3858,PAYLOAD,2023-02-15 03:21:15,15.0884289,0.0001236,53.2144,110.4936,101.5868,258.5263,0.0014409,0.0002272,0.0,0 STARLINK-3858,1 52553U 22051W   23046.13975874  .00022720  00000-0  14409-2 0  9992,2 52553  53.2144 110.4936 0001236 101.5868 258.5263 15.08842890 42659,6917.872,95.437,540.592,538.882,0.0
52553.0,STARLINK-3858,PAYLOAD,2023-02-15 11:18:10,15.08863721,0.0001039,53.2141,109.0084,117.4508,242.6589,0.0022171,0.00035197,0.0,0 STARLINK-3858,1 52553U 22051W   23046.47095479  .00035197  00000-0  22171-2 0  9990,2 52553  53.2141 109.0084 0001039 117.4508 242.6589 15.08863721 42631,6917.808,95.436,540.392,538.954,0.0
52553.0,STARLINK-3858,PAYLOAD,2023-02-16 09:33:33,15.08877433,5.37e-05,53.214,104.8453,103.0845,257.0207,0.0013579,0.00021411,0.0,0 STARLINK-3858,1 52553U 22051W   23047.39830359  .00021411  00000-0  13579-2 0  9992,2 52553  53.2140 104.8453 0000537 103.0845 257.0207 15.08877433 42845,6917.766,95.435,540.002,539.259,0.0
52553.0,STARLINK-3858,PAYLOAD,2023-02-16 12:44:19,15.08887297,6.05e-05,53.2138,104.25,101.0863,259.0197,0.0014185,0.00022389,0.0,0 STARLINK-3858,1 52553U 22051W   23047.53077920  .00022389  00000-0  14185-2 0  9994,2 52553  53.2138 104.2500 0000605 101.0863 259.0197 15.08887297 42796,6917.736,95.435,540.019,539.182,0.0
52553.0,STARLINK-3858,PAYLOAD,2023-02-16 20:41:15,15.08844049,8.36e-05,53.2149,102.7622,108.2543,251.854,0.00029608,4.428e-05,0.0,0 STARLINK-3858,1 52553U 22051W   23047.86198448  .00004428  00000-0  29608-3 0  9990,2 52553  53.2149 102.7622 0000836 108.2543 251.8540 15.08844049 42842,6917.868,95.437,540.311,539.155,0.0
52553.0,STARLINK-3858,PAYLOAD,2023-02-16 22:16:38,15.08838422,0.000155,53.2127,102.466,104.366,255.7504,0.00025054,3.701e-05,0.0,0 STARLINK-3858,1 52553U 22051W   23047.92822818  .00003701  00000-0  25054-3 0  9996,2 52553  53.2127 102.4660 0001550 104.3660 255.7504 15.08838422 42928,6917.885,95.438,540.822,538.678,0.0
52553.0,STARLINK-3858,PAYLOAD,2023-02-17 03:02:48,15.08809471,0.0001418,53.2147,101.5762,113.3992,246.7149,0.00065453,0.00010136,0.0,0 STARLINK-3858,1 52553U 22051W   23048.12695427  .00010136  00000-0  65453-3 0  9990,2 52553  53.2147 101.5762 0001418 113.3992 246.7149 15.08809471 42954,6917.974,95.439,540.82,538.858,0.0
52553.0,STARLINK-3858,PAYLOAD,2023-02-17 09:24:22,15.08807795,0.0001367,53.2142,100.3854,103.3905,256.724,0.00091223,0.00014247,0.0,0 STARLINK-3858,1 52553U 22051W   23048.39192150  .00014247  00000-0  91223-3 0  9995,2 52553  53.2142 100.3854 0001367 103.3905 256.7240 15.08807795 42921,6917.979,95.44,540.79,538.898,0.0
52553.0,STARLINK-3858,PAYLOAD,2023-02-17 20:32:04,15.08826457,0.0001428,53.2138,98.3031,103.6458,256.4693,0.0013352,0.00021018,0.0,0 STARLINK-3858,1 52553U 22051W   23048.85560786  .00021018  00000-0  13352-2 0  9990,2 52553  53.2138  98.3031 0001428 103.6458 256.4693 15.08826457 42995,6917.922,95.438,540.775,538.799,0.0
52553.0,STARLINK-3858,PAYLOAD,2023-02-18 09:15:09,15.08855818,0.0001415,53.2138,95.9238,102.4832,257.6318,0.0015101,0.00023837,0.0,0 STARLINK-3858,1 52553U 22051W   23049.38552594  .00023837  00000-0  15101-2 0  9992,2 52553  53.2138  95.9238 0001415 102.4832 257.6318 15.08855818 43144,6917.832,95.437,540.676,538.718,0.0
52553.0,STARLINK-3858,PAYLOAD,2023-02-18 12:25:55,15.0886522,0.0001425,53.2137,95.3284,103.9706,256.1444,0.0016729,0.00026455,0.0,0 STARLINK-3858,1 52553U 22051W   23049.51800358  .00026455  00000-0  16729-2 0  9997,2 52553  53.2137  95.3284 0001425 103.9706 256.1444 15.08865220 43091,6917.803,95.436,540.654,538.683,0.0
52553.0,STARLINK-3858,PAYLOAD,2023-02-18 20:22:51,15.08854301,0.0001517,53.2151,93.8417,93.0271,267.0895,0.00079727,0.00012428,0.0,0 STARLINK-3858,1 52553U 22051W   23049.84920537  .00012428  00000-0  79727-3 0  9998,2 52553  53.2151  93.8417 0001517  93.0271 267.0895 15.08854301 43219,6917.837,95.437,540.751,538.652,0.0
52553.0,STARLINK-3858,PAYLOAD,2023-02-19 09:05:56,15.08859443,0.0002119,53.2139,91.4626,92.7173,267.4062,0.0014501,0.00022878,0.0,0 STARLINK-3858,1 52553U 22051W   23050.37912532  .00022878  00000-0  14501-2 0  9992,2 52553  53.2139  91.4626 0002119  92.7173 267.4062 15.08859443 43297,6917.821,95.436,541.152,538.22,0.0
52553.0,STARLINK-3858,PAYLOAD,2023-02-19 20:13:38,15.08843999,0.0001511,53.2142,89.3805,86.695,273.4215,0.0014474,0.00022825,0.0,0 STARLINK-3858,1 52553U 22051W   23050.84280774  .00022825  00000-0  14474-2 0  9991,2 52553  53.2142  89.3805 0001511  86.6950 273.4215 15.08843999 43360,6917.868,95.437,540.778,538.688,0.0
52553.0,STARLINK-3858,PAYLOAD,2023-02-20 08:56:43,15.08847475,0.0001425,53.2149,87.0016,90.471,269.6445,0.00048189,7.391e-05,0.0,0 STARLINK-3858,1 52553U 22051W   23051.37272558  .00007391  00000-0  48189-3 0  9993,2 52553  53.2149  87.0016 0001425  90.4710 269.6445 15.08847475 43441,6917.858,95.437,540.708,538.737,0.0
52553.0,STARLINK-3858,PAYLOAD,2023-02-21 05:36:44,15.08846225,0.0001186,53.215,83.1357,84.6772,275.4355,0.00032942,4.96e-05,0.0,0 STARLINK-3858,1 52553U 22051W   23052.23384560  .00004960  00000-0  32942-3 0  9995,2 52553  53.2150  83.1357 0001186  84.6772 275.4355 15.08846225 43576,6917.861,95.437,540.547,538.906,0.0
52553.0,STARLINK-3858,PAYLOAD,2023-02-21 13:33:39,15.08857287,0.0001303,53.2152,81.6482,94.5813,265.5328,0.00046218,7.079e-05,0.0,0 STARLINK-3858,1 52553U 22051W   23052.56504055  .00007079  00000-0  46218-3 0  9999,2 52553  53.2152  81.6482 0001303  94.5813 265.5328 15.08857287 43555,6917.828,95.436,540.594,538.791,0.0
52553.0,STARLINK-3858,PAYLOAD,2023-02-22 08:38:17,15.08840569,0.0001463,53.2157,78.082,95.2276,264.8883,9.0595e-05,1.154e-05,0.0,0 STARLINK-3858,1 52553U 22051W   23053.35992498  .00001154  00000-0  90595-4 0  9995,2 52553  53.2157  78.0820 0001463  95.2276 264.8883 15.08840569 43748,6917.879,95.438,540.756,538.732,0.0
52553.0,STARLINK-3858,PAYLOAD,2023-02-22 13:24:26,15.08845793,0.0001456,53.2153,77.1858,100.2289,259.8867,0.00018379,2.639e-05,0.0,0 STARLINK-3858,1 52553U 22051W   23053.55864332  .00002639  00000-0  18379-3 0  9990,2 52553  53.2153  77.1858 0001456 100.2289 259.8867 15.08845793 43704,6917.863,95.437,540.735,538.72,0.0
52553.0,STARLINK-3858,PAYLOAD,2023-02-22 18:10:36,15.08828752,0.0001267,53.2151,76.2951,94.7509,265.3628,-0.00020121,-3.488e-05,0.0,0 STARLINK-3858,1 52553U 22051W   23053.75736899 -.00003488  00000-0 -20121-3 0  9991,2 52553  53.2151  76.2951 0001267  94.7509 265.3628 15.08828752 43802,6917.915,95.438,540.656,538.903,0.0
52553.0,STARLINK-3858,PAYLOAD,2023-02-23 06:53:41,15.08842632,0.0001286,53.2151,73.9163,101.055,259.0587,0.00022328,3.268e-05,0.0,0 STARLINK-3858,1 52553U 22051W   23054.28728633  .00003268  00000-0  22328-3 0  9992,2 52553  53.2151  73.9163 0001286 101.0550 259.0587 15.08842632 43885,6917.872,95.437,540.627,538.848,0.0
52553.0,STARLINK-3858,PAYLOAD,2023-02-23 13:15:14,15.0885448,0.0001268,53.2148,72.7266,106.8022,253.3109,0.0011651,0.00018311,0.0,0 STARLINK-3858,1 52553U 22051W   23054.55224715  .00018311  00000-0  11651-2 0  9995,2 52553  53.2148  72.7266 0001268 106.8022 253.3109 15.08854480 43857,6917.836,95.437,540.578,538.824,0.0
